OBJECT_NAME,OBJECT_ID,EPOCH,MEAN_MOTION,ECCENTRICITY,INCLINATION,RA_OF_ASC_NODE,ARG_OF_PERICENTER,MEAN_ANOMALY,EPHEMERIS_TYPE,CLASSIFICATION_TYPE,NORAD_CAT_ID,ELEMENT_SET_NO,REV_AT_EPOCH,BSTAR,MEAN_MOTION_DOT,MEAN_MOTION_DDOT
CUBEBUG-2 (LO-74),2013-066AA,2026-07-10T07:20:24.677952,14.93948233,.00561215,97.8906,140.3858,311.9936,47.6511,0,U,39440,999,68044,.18439435E-3,.1961E-4,0
FUNCUBE-1 (AO-73),2013-066AE,2026-07-10T23:38:02.253120,15.09785992,.0037927,97.8286,163.9335,121.2536,239.2417,0,U,39444,999,68325,.25254E-3,.4079E-4,0
UWE-3,2013-066AG,2026-07-10T08:11:15.078336,14.97180749,.00475418,97.8693,147.5751,241.4844,118.1586,0,U,39446,999,68104,.17602772E-3,.2018E-4,0
UNISAT-6,2014-033C,2026-07-10T09:29:30.491520,14.88355319,.00445681,97.7899,343.7035,353.7824,6.2834,0,U,40012,999,64961,.13755491E-3,.1239E-4,0
DUCHIFAT-1,2014-033M,2026-07-10T23:09:54.640800,15.70169676,.000209,98.0442,254.5658,250.6210,109.4824,0,U,40021,999,65947,.80479E-3,.98109E-3,0
QB50P1,2014-033R,2026-07-10T06:43:55.731360,15.18618170,.00100557,98.0969,204.0508,139.1601,221.0386,0,U,40025,999,65653,.26646951E-3,.5444E-4,0
LILACSAT-2,2015-049K,2026-07-11T04:40:45.850368,15.52260704,.000813,97.4633,229.9576,153.2311,206.9362,0,U,40908,999,59947,.20316E-3,.12254E-3,0
FOX-1A (AO-85),2015-058D,2026-07-11T00:41:55.149792,14.91072604,.0132046,64.7731,204.8837,47.3799,313.8357,0,U,40967,999,11712,.15193E-3,.1601E-4,0
CAS-2T & KS-1Q,2016-066G,2026-07-11T04:53:20.374656,14.44765066,.0342449,98.3814,267.6651,56.8459,306.5094,0,U,41847,999,50826,.1047E-3,.69E-5,0
RADFXSAT (FOX-1B),2017-073E,2026-07-11T02:02:10.716000,15.13028349,.0148032,97.4682,58.8129,245.7914,112.7786,0,U,43017,999,46900,.15974E-3,.3616E-4,0
DIWATA-2B,2018-084H,2026-07-11T04:14:21.926688,15.00553423,.0013013,98.1221,29.4350,96.6945,263.5759,0,U,43678,999,41981,.11085E-3,.1335E-4,0
ES'HAIL 2,2018-090A,2026-07-11T01:35:38.675904,1.00269115,.0002169,0.0255,34.7242,125.5586,178.4100,0,U,43700,999,2791,0,0,0
FOX-1CLIFF (AO-95),2018-099N,2026-07-11T03:03:59.508576,15.27218021,.0007011,97.4378,252.2917,257.0089,103.0367,0,U,43770,999,41687,.26022E-3,.6872E-4,0
ITASAT,2018-099AE,2026-07-11T03:05:13.589664,15.19350764,.0010761,97.4021,243.1647,266.8615,93.1389,0,U,43786,999,41654,.17404E-3,.3615E-4,0
JY1SAT (JO-97),2018-099AX,2026-07-10T23:16:37.848000,15.34427741,.0006447,97.4124,254.8968,171.3514,188.7841,0,U,43803,999,41727,.32704E-3,.10834E-3,0
UWE-4,2018-111E,2026-07-09T06:35:43.813824,15.47549208,.00052707,97.5841,119.7053,218.3666,141.7210,0,U,43880,999,41419,.53767723E-3,.2764E-3,0
TIANYAN 01,2019-093C,2026-07-11T03:24:58.389408,14.86555603,.0013897,97.7523,263.7893,14.4326,345.7284,0,U,44881,999,35497,.43876E-4,.336E-5,0
RS-44 & BREEZE-KM R/B,2019-096E,2026-07-10T07:16:24.451392,12.79748953,.02185813,82.5238,324.3444,90.3753,272.2396,0,U,44909,999,30530,-.16997626E-4,.9E-7,0
SALSAT,2020-068K,2026-07-10T10:17:36.763872,15.30129687,.00086995,97.8857,195.9138,210.5134,149.5600,0,U,46495,999,31891,.18731159E-3,.5381E-4,0
XW-3 (CAS-9),2021-131B,2026-07-11T05:05:42.648288,14.41379533,.0004813,98.4982,284.4724,41.1030,319.0521,0,U,50466,999,23857,.73408E-4,.194E-5,0
GREENCUBE (IO-117),2022-080E,2026-07-10T05:14:37.423680,6.42583278,.00090084,70.1422,290.2367,284.7282,75.2379,0,U,53109,999,9354,0,-.3E-7,0
UMKA 1 (RS40S),2023-091G,2026-07-11T04:09:15.419232,15.21093215,.0013426,97.5042,250.7800,42.7737,317.4541,0,U,57172,999,16765,.17684E-3,.387E-4,0
CUBESX-HSE 3 (RS42S),2023-091N,2026-07-11T03:39:30.809088,15.31820246,.0010098,97.5085,258.0501,16.4834,343.6733,0,U,57178,999,16809,.26522E-3,.8081E-4,0
MONITOR-3 (RS58S),2023-091Q,2026-07-11T03:57:58.019040,15.28322976,.001145,97.5077,255.7928,23.6499,336.5264,0,U,57180,999,16795,.22676E-3,.6189E-4,0
MONITOR-4 (RS57S),2023-091S,2026-07-11T05:00:09.871776,15.28409508,.0011446,97.5071,255.8088,23.9088,336.2681,0,U,57182,999,16796,.22859E-3,.6257E-4,0
MONITOR-2 (RS39S),2023-091U,2026-07-11T03:48:57.168000,15.19131725,.0011794,97.5062,250.2881,37.1786,323.0262,0,U,57184,999,16759,.15086E-3,.3104E-4,0
SVYATOBOR 1 (RS60S),2023-091X,2026-07-11T02:40:50.924064,15.27020196,.0009163,97.5082,256.0653,18.8837,341.2740,0,U,57187,999,16796,.21123E-3,.5531E-4,0
VIZARD-METEO (RS38S),2023-091Z,2026-07-11T04:19:31.159200,15.36792411,.0006022,97.5086,262.1570,356.1622,3.9575,0,U,57189,999,16837,.28926E-3,.10324E-3,0
POLYTECH-UNIVERSE 3 (RS46S),2023-091AB,2026-07-11T04:23:26.149920,15.19343301,.0016433,97.5039,249.8161,50.8543,309.4149,0,U,57191,999,16759,.15816E-3,.3283E-4,0
UTMN 2 (RS27S),2023-091AP,2026-07-11T03:46:12.638208,15.32639220,.0007156,97.5081,259.7179,5.2554,354.8761,0,U,57203,999,16821,.24811E-3,.7745E-4,0
