CUBEBUG-2 (LO-74)
1 39440U 13066AA  26191.30584118  .00001961  00000-0  18439-3 0  9990
2 39440  97.8906 140.3858 0056121 311.9936  47.6511 14.93948233680449
FUNCUBE-1 (AO-73)
1 39444U 13066AE  26191.98474830  .00004079  00000-0  25254-3 0  9993
2 39444  97.8286 163.9335 0037927 121.2536 239.2417 15.09785992683251
UWE-3
1 39446U 13066AG  26191.34114674  .00002018  00000-0  17603-3 0  9992
2 39446  97.8693 147.5751 0047542 241.4844 118.1586 14.97180749681048
UNISAT-6
1 40012U 14033C   26191.39549180  .00001239  00000-0  13755-3 0  9995
2 40012  97.7899 343.7035 0044568 353.7824   6.2834 14.88355319649618
DUCHIFAT-1
1 40021U 14033M   26191.96521575  .00098109  00000-0  80479-3 0  9995
2 40021  98.0442 254.5658 0002090 250.6210 109.4824 15.70169676659475
LILACSAT-2
1 40908U 15049K   26192.19497512  .00012254  00000-0  20316-3 0  9997
2 40908  97.4633 229.9576 0008130 153.2311 206.9362 15.52260704599477
CAS-2T & KS-1Q
1 41847U 16066G   26192.20370804  .00000690  00000-0  10470-3 0  9997
2 41847  98.3814 267.6651 0342449  56.8459 306.5094 14.44765066508266
FOX-1B (AO-91)
1 43017U 17073E   26192.08484625  .00003616  00000-0  15974-3 0  9995
2 43017  97.4682  58.8129 0148032 245.7914 112.7786 15.13028349469003
FUNCUBE-3 (EO-79)/QB50P1
1 40025U 14033R   26191.28050615  .00005444  00000-0  26647-3 0  9993
2 40025  98.0969 204.0508 0010056 139.1601 221.0386 15.18618170656531
FOX-1A (AO-85)
1 40967U 15058D   26192.02911053  .00001601  00000-0  15193-3 0  9996
2 40967  64.7731 204.8837 0132046  47.3799 313.8357 14.91072604117129
DIWATA-2B (PO-101)
1 43678U 18084H   26192.17664267  .00001335  00000-0  11085-3 0  9998
2 43678  98.1221  29.4350 0013013  96.6945 263.5759 15.00553423419811
ESHAIL-2
1 43700U 18090A   26192.06641986  .00000000  00000-0  00000+0 0  9991
2 43700   0.0255  34.7242 0002169 125.5586 178.4100  1.00269115 27915
ITASAT-1
1 43786U 18099AE  26192.12862951  .00003615  00000-0  17404-3 0  9993
2 43786  97.4021 243.1647 0010761 266.8615  93.1389 15.19350764416543
FOX-1CLIFF (AO-95)
1 43770U 18099N   26192.12777209  .00006872  00000-0  26022-3 0  9991
2 43770  97.4378 252.2917 0007011 257.0089 103.0367 15.27218021416874
JY1SAT (JO-97)
1 43803U 18099AX  26191.96988250  .00010834  00000-0  32704-3 0  9996
2 43803  97.4124 254.8968 0006447 171.3514 188.7841 15.34427741417278
UWE-4
1 43880U 18111E   26190.27481266  .00027640  00000-0  53768-3 0  9990
2 43880  97.5841 119.7053 0005271 218.3666 141.7210 15.47549208414192
CAS-6 (TO-108)
1 44881U 19093C   26192.14234247  .00000336  00000-0  43876-4 0  9998
2 44881  97.7523 263.7893 0013897  14.4326 345.7284 14.86555603354970
DOSAAF-85 (RS-44)
1 44909U 19096E   26191.30306078  .00000009  00000-0 -16998-4 0  9994
2 44909  82.5238 324.3444 0218581  90.3753 272.2396 12.79748953305309
SALSAT (TUBSAT 22)
1 46495U 20068K   26191.42889773  .00005381  00000-0  18731-3 0  9991
2 46495  97.8857 195.9138 0008700 210.5134 149.5600 15.30129687318910
CAMSAT XW-3 (CAS-9)
1 50466U 21131B   26192.21229917  .00000194  00000-0  73408-4 0  9992
2 50466  98.4982 284.4724 0004813  41.1030 319.0521 14.41379533238575
ROBUSTA 1F (MTCUBE-2)
1 53109U 22080E   26191.21848870 -.00000003  00000-0  00000-0 0  9991
2 53109  70.1422 290.2367 0009008 284.7282  75.2379  6.42583278 93544
UMKA-1 (RS40S)
1 57172U 23091G   26192.17309513  .00003870  00000-0  17684-3 0  9993
2 57172  97.5042 250.7800 0013426  42.7737 317.4541 15.21093215167658
CUBESX-HSE-3 (RS42S)
1 57178U 23091N   26192.15243992  .00008081  00000-0  26522-3 0  9995
2 57178  97.5085 258.0501 0010098  16.4834 343.6733 15.31820246168094
MONITOR-3 (RS58S)
1 57180U 23091Q   26192.16525485  .00006189  00000-0  22676-3 0  9992
2 57180  97.5077 255.7928 0011450  23.6499 336.5264 15.28322976167952
MONITOR-4 (RS57S)
1 57182U 23091S   26192.20844759  .00006257  00000-0  22859-3 0  9996
2 57182  97.5071 255.8088 0011446  23.9088 336.2681 15.28409508167966
MONITOR-2 (RS39S)
1 57184U 23091U   26192.15899500  .00003104  00000-0  15086-3 0  9998
2 57184  97.5062 250.2881 0011794  37.1786 323.0262 15.19131725167597
SVYATOBOR-1 (RS60S)
1 57187U 23091X   26192.11170051  .00005531  00000-0  21123-3 0  9995
2 57187  97.5082 256.0653 0009163  18.8837 341.2740 15.27020196167965
VIZARD-METEO (RS38S)
1 57189U 23091Z   26192.18022175  .00010324  00000-0  28926-3 0  9991
2 57189  97.5086 262.1570 0006022 356.1622   3.9575 15.36792411168378
UTMN-2 (RS27S)
1 57203U 23091AP  26192.15709072  .00007745  00000-0  24811-3 0  9995
2 57203  97.5081 259.7179 0007156   5.2554 354.8761 15.32639220168214
POLYTECH UNIVERSE-3 (RS46S)
1 57191U 23091AB  26192.18294155  .00003283  00000-0  15816-3 0  9993
2 57191  97.5039 249.8161 0016433  50.8543 309.4149 15.19343301167599
